{
  "norad_id": 58661,
  "name": "TIANMU-1 20",
  "history": [
    {
      "epoch": "2026-04-10T06:36:09.574848Z",
      "apogee_km": 475.45259757749227,
      "perigee_km": 465.9154773064329,
      "latitude_deg": 2.8015669645168467e-05,
      "longitude_deg": -80.66899097933629,
      "height_km": 478.40958499712553,
      "semi_major_axis_km": 6848.821037441962,
      "eccentricity": 0.00069626,
      "inclination_deg": 97.4355,
      "raan_deg": 216.8822,
      "arg_perigee_deg": 194.4943,
      "mean_anomaly_deg": 165.61,
      "mean_motion_rev_day": 15.31718772
    },
    {
      "epoch": "2026-04-11T20:13:53.380416Z",
      "apogee_km": 475.4833462396791,
      "perigee_km": 465.7457912592308,
      "latitude_deg": 6.607272232275291e-05,
      "longitude_deg": 74.9266165036685,
      "height_km": 478.53167051802086,
      "semi_major_axis_km": 6848.751568749454,
      "eccentricity": 0.0007109,
      "inclination_deg": 97.4355,
      "raan_deg": 218.4557,
      "arg_perigee_deg": 188.9809,
      "mean_anomaly_deg": 171.1307,
      "mean_motion_rev_day": 15.31742077
    },
    {
      "epoch": "2026-04-13T06:43:26.948064Z",
      "apogee_km": 475.51838648126795,
      "perigee_km": 465.61721395159475,
      "latitude_deg": 5.922326777968747e-06,
      "longitude_deg": -82.43740459451176,
      "height_km": 478.6140094320053,
      "semi_major_axis_km": 6848.704800216431,
      "eccentricity": 0.00072285,
      "inclination_deg": 97.436,
      "raan_deg": 219.8981,
      "arg_perigee_deg": 183.921,
      "mean_anomaly_deg": 176.1976,
      "mean_motion_rev_day": 15.31757767
    },
    {
      "epoch": "2026-04-14T20:21:07.650144Z",
      "apogee_km": 475.5711941371819,
      "perigee_km": 465.47079332802514,
      "latitude_deg": -2.7750511398321433e-05,
      "longitude_deg": 73.17108354758629,
      "height_km": 478.6761098158136,
      "semi_major_axis_km": 6848.657993732603,
      "eccentricity": 0.0007374,
      "inclination_deg": 97.4364,
      "raan_deg": 221.4715,
      "arg_perigee_deg": 178.6696,
      "mean_anomaly_deg": 181.4566,
      "mean_motion_rev_day": 15.3177347
    },
    {
      "epoch": "2026-04-15T19:52:09.903360Z",
      "apogee_km": 475.60814115559697,
      "perigee_km": 465.37628910818967,
      "latitude_deg": 3.911917629825341e-05,
      "longitude_deg": 80.4293674678593,
      "height_km": 478.69716023775254,
      "semi_major_axis_km": 6848.629215131893,
      "eccentricity": 0.000747,
      "inclination_deg": 97.4368,
      "raan_deg": 222.455,
      "arg_perigee_deg": 175.383,
      "mean_anomaly_deg": 184.7482,
      "mean_motion_rev_day": 15.31783125
    },
    {
      "epoch": "2026-04-16T19:23:11.682240Z",
      "apogee_km": 475.6351991807687,
      "perigee_km": 465.28833616257,
      "latitude_deg": -7.430380710979521e-05,
      "longitude_deg": 87.68955658820825,
      "height_km": 478.69017736073886,
      "semi_major_axis_km": 6848.598767671669,
      "eccentricity": 0.0007554,
      "inclination_deg": 97.4372,
      "raan_deg": 223.4384,
      "arg_perigee_deg": 172.0314,
      "mean_anomaly_deg": 188.1048,
      "mean_motion_rev_day": 15.3179334
    },
    {
      "epoch": "2026-04-17T22:02:21.073344Z",
      "apogee_km": 475.6585705126772,
      "perigee_km": 465.1936921055112,
      "latitude_deg": 1.9020440368958164e-05,
      "longitude_deg": 47.92043255685693,
      "height_km": 478.6558340713706,
      "semi_major_axis_km": 6848.5631313090935,
      "eccentricity": 0.00076402,
      "inclination_deg": 97.4375,
      "raan_deg": 224.553,
      "arg_perigee_deg": 168.4011,
      "mean_anomaly_deg": 191.7408,
      "mean_motion_rev_day": 15.31805296
    },
    {
      "epoch": "2026-04-18T19:59:17.510784Z",
      "apogee_km": 475.68822154283043,
      "perigee_km": 465.08944296483514,
      "latitude_deg": -3.796115547352012e-05,
      "longitude_deg": 78.70177021534754,
      "height_km": 478.62043354602866,
      "semi_major_axis_km": 6848.525832253833,
      "eccentricity": 0.0007738,
      "inclination_deg": 97.4378,
      "raan_deg": 225.4709,
      "arg_perigee_deg": 165.3964,
      "mean_anomaly_deg": 194.7502,
      "mean_motion_rev_day": 15.3181781
    },
    {
      "epoch": "2026-04-19T19:30:17.241120Z",
      "apogee_km": 475.7067336350701,
      "perigee_km": 464.98338043016884,
      "latitude_deg": -2.9147966850251024e-06,
      "longitude_deg": 85.97079613634406,
      "height_km": 478.54894558900884,
      "semi_major_axis_km": 6848.482057032619,
      "eccentricity": 0.0007829,
      "inclination_deg": 97.4379,
      "raan_deg": 226.4546,
      "arg_perigee_deg": 162.0702,
      "mean_anomaly_deg": 198.0817,
      "mean_motion_rev_day": 15.31832497
    },
    {
      "epoch": "2026-04-20T14:19:04.463616Z",
      "apogee_km": 475.72130904599453,
      "perigee_km": 464.91143630443,
      "latitude_deg": 5.302652343280293e-05,
      "longitude_deg": 163.78839964298183,
      "height_km": 478.483481161076,
      "semi_major_axis_km": 6848.453372675212,
      "eccentricity": 0.00078922,
      "inclination_deg": 97.4378,
      "raan_deg": 227.2416,
      "arg_perigee_deg": 159.5753,
      "mean_anomaly_deg": 200.5806,
      "mean_motion_rev_day": 15.31842121
    },
    {
      "epoch": "2026-04-21T20:06:18.098208Z",
      "apogee_km": 475.72996947928004,
      "perigee_km": 464.78623410661567,
      "latitude_deg": -3.102778461698445e-05,
      "longitude_deg": 77.00428309045896,
      "height_km": 478.34166535456114,
      "semi_major_axis_km": 6848.395101792948,
      "eccentricity": 0.000799,
      "inclination_deg": 97.4377,
      "raan_deg": 228.4876,
      "arg_perigee_deg": 155.5865,
      "mean_anomaly_deg": 204.5756,
      "mean_motion_rev_day": 15.31861672
    },
    {
      "epoch": "2026-04-22T21:11:19.147200Z",
      "apogee_km": 475.7526488935009,
      "perigee_km": 464.6815996162295,
      "latitude_deg": 7.85398496667004e-05,
      "longitude_deg": 60.7691476332322,
      "height_km": 478.20953326402105,
      "semi_major_axis_km": 6848.3541242548645,
      "eccentricity": 0.0008083,
      "inclination_deg": 97.4376,
      "raan_deg": 229.537,
      "arg_perigee_deg": 152.1068,
      "mean_anomaly_deg": 208.0609,
      "mean_motion_rev_day": 15.31875421
    },
    {
      "epoch": "2026-04-23T14:26:00.614400Z",
      "apogee_km": 475.7508230495514,
      "perigee_km": 464.62174984321337,
      "latitude_deg": 6.9024524986187405e-06,
      "longitude_deg": 162.1096546743184,
      "height_km": 478.099580089016,
      "semi_major_axis_km": 6848.323286446382,
      "eccentricity": 0.00081254,
      "inclination_deg": 97.4376,
      "raan_deg": 230.2585,
      "arg_perigee_deg": 149.8942,
      "mean_anomaly_deg": 210.2768,
      "mean_motion_rev_day": 15.31885768
    },
    {
      "epoch": "2026-04-24T20:13:11.214624Z",
      "apogee_km": 475.7403158846546,
      "perigee_km": 464.51737781483826,
      "latitude_deg": 5.709470439385208e-05,
      "longitude_deg": 75.33840012670646,
      "height_km": 477.8813973639794,
      "semi_major_axis_km": 6848.265846849747,
      "eccentricity": 0.0008194,
      "inclination_deg": 97.4375,
      "raan_deg": 231.5047,
      "arg_perigee_deg": 146.038,
      "mean_anomaly_deg": 214.1388,
      "mean_motion_rev_day": 15.31905041
    },
    {
      "epoch": "2026-04-25T19:44:05.872416Z",
      "apogee_km": 475.7288691136828,
      "perigee_km": 464.411521902387,
      "latitude_deg": 3.812791488148196e-05,
      "longitude_deg": 82.62882736097949,
      "height_km": 477.6873440488695,
      "semi_major_axis_km": 6848.207195508035,
      "eccentricity": 0.0008263,
      "inclination_deg": 97.4377,
      "raan_deg": 232.4886,
      "arg_perigee_deg": 143.0072,
      "mean_anomaly_deg": 217.1741,
      "mean_motion_rev_day": 15.31924721
    },
    {
      "epoch": "2026-04-26T22:23:06.473184Z",
      "apogee_km": 475.7140719915851,
      "perigee_km": 464.29055384092317,
      "latitude_deg": -1.865307526408839e-05,
      "longitude_deg": 42.8967485773526,
      "height_km": 477.4491695397852,
      "semi_major_axis_km": 6848.139312916253,
      "eccentricity": 0.00083406,
      "inclination_deg": 97.4379,
      "raan_deg": 233.6035,
      "arg_perigee_deg": 139.609,
      "mean_anomaly_deg": 220.5772,
      "mean_motion_rev_day": 15.31947499
    },
    {
      "epoch": "2026-04-27T20:19:55.259040Z",
      "apogee_km": 475.6658303939512,
      "perigee_km": 464.22405508402244,
      "latitude_deg": -2.2605051330497742e-05,
      "longitude_deg": 73.71044888607402,
      "height_km": 477.21623988338445,
      "semi_major_axis_km": 6848.081942738987,
      "eccentricity": 0.0008354,
      "inclination_deg": 97.4381,
      "raan_deg": 234.5218,
      "arg_perigee_deg": 136.8747,
      "mean_anomaly_deg": 223.315,
      "mean_motion_rev_day": 15.3196675
    },
    {
      "epoch": "2026-04-28T19:50:46.550688Z",
      "apogee_km": 475.62281694431385,
      "perigee_km": 464.1578495829626,
      "latitude_deg": -4.2049745335824496e-05,
      "longitude_deg": 81.01484108488496,
      "height_km": 476.951220810496,
      "semi_major_axis_km": 6848.027333263638,
      "eccentricity": 0.0008371,
      "inclination_deg": 97.4386,
      "raan_deg": 235.5056,
      "arg_perigee_deg": 133.7742,
      "mean_anomaly_deg": 226.4193,
      "mean_motion_rev_day": 15.31985075
    },
    {
      "epoch": "2026-04-29T20:55:40.253952Z",
      "apogee_km": 475.58858565224455,
      "perigee_km": 464.0839905282528,
      "latitude_deg": -4.452037609791099e-05,
      "longitude_deg": 64.81031408790118,
      "height_km": 476.66084158734475,
      "semi_major_axis_km": 6847.973288090248,
      "eccentricity": 0.00084,
      "inclination_deg": 97.439,
      "raan_deg": 236.5549,
      "arg_perigee_deg": 130.4285,
      "mean_anomaly_deg": 229.769,
      "mean_motion_rev_day": 15.32003211
    }
  ]
}